[
  {
    "provinceName": "安徽",
    "pinyin": "anhui"
  },
  {
    "provinceName": "澳门",
    "pinyin": "aomen"
  },
  {
    "provinceName": "北京",
    "pinyin": "beijing"
  },
  {
    "provinceName": "重庆",
    "pinyin": "chongqing"
  },
  {
    "provinceName": "福建",
    "pinyin": "fujian"
  },
  {
    "provinceName": "甘肃",
    "pinyin": "gansu"
  },
  {
    "provinceName": "广东",
    "pinyin": "guangdong"
  },
  {
    "provinceName": "广西",
    "pinyin": "guangxi"
  },
  {
    "provinceName": "贵州",
    "pinyin": "guizhou"
  },
  {
    "provinceName": "海南",
    "pinyin": "hainan"
  },
  {
    "provinceName": "河北",
    "pinyin": "hebei"
  },
  {
    "provinceName": "黑龙江",
    "pinyin": "heilongjiang"
  },
  {
    "provinceName": "河南",
    "pinyin": "henan"
  },
  {
    "provinceName": "湖北",
    "pinyin": "hubei"
  },
  {
    "provinceName": "湖南",
    "pinyin": "hunan"
  },
  {
    "provinceName": "江苏",
    "pinyin": "jiangsu"
  },
  {
    "provinceName": "江西",
    "pinyin": "jiangxi"
  },
  {
    "provinceName": "吉林",
    "pinyin": "jilin"
  },
  {
    "provinceName": "辽宁",
    "pinyin": "liaoning"
  },
  {
    "provinceName": "内蒙古",
    "pinyin": "neimenggu"
  },
  {
    "provinceName": "宁夏",
    "pinyin": "ningxia"
  },
  {
    "provinceName": "青海",
    "pinyin": "qinghai"
  },
  {
    "provinceName": "山东",
    "pinyin": "shandong"
  },
  {
    "provinceName": "上海",
    "pinyin": "shanghai"
  },
  {
    "provinceName": "山西",
    "pinyin": "shanxi"
  },
  {
    "provinceName": "陕西",
    "pinyin": "shanxi1"
  },
  {
    "provinceName": "四川",
    "pinyin": "sichuan"
  },
  {
    "provinceName": "台湾",
    "pinyin": "taiwan"
  },
  {
    "provinceName": "天津",
    "pinyin": "tianjin"
  },
  {
    "provinceName": "香港",
    "pinyin": "xianggang"
  },
  {
    "provinceName": "新疆",
    "pinyin": "xinjiang"
  },
  {
    "provinceName": "西藏",
    "pinyin": "xizang"
  },
  {
    "provinceName": "云南",
    "pinyin": "yunnan"
  },
  {
    "provinceName": "浙江",
    "pinyin": "zejiang"
  }
]
